NORAD_CAT_ID,OBJECT_NAME,OBJECT_TYPE,EPOCH,MEAN_MOTION,ECCENTRICITY,INCLINATION,RA_OF_ASC_NODE,ARG_OF_PERICENTER,MEAN_ANOMALY,BSTAR,MEAN_MOTION_DOT,MEAN_MOTION_DDOT,TLE_LINE0,TLE_LINE1,TLE_LINE2,SEMIMAJOR_AXIS,PERIOD,APOGEE,PERIGEE,DECAYED
50827.0,STARLINK-3329,PAYLOAD,2023-02-03 13:40:33,15.08836228,0.0001202,53.2141,202.4258,88.9353,271.1777,1.5056e-05,-4.8e-07,0.0,0 STARLINK-3329,1 50827U 22001AA  23034.56982671 -.00000048  00000-0  15056-4 0  9997,2 50827  53.2141 202.4258 0001202  88.9353 271.1777 15.08836228 59799,6917.892,95.438,540.588,538.925,0.0
50827.0,STARLINK-3329,PAYLOAD,2023-02-04 03:59:01,15.0883824,0.0001368,53.2141,199.7491,88.1757,271.9392,8.229e-05,1.022e-05,0.0,0 STARLINK-3329,1 50827U 22001AA  23035.16598494  .00001022  00000-0  82290-4 0  9996,2 50827  53.2141 199.7491 0001368  88.1757 271.9392 15.08838240 61159,6917.886,95.438,540.697,538.804,0.0
50827.0,STARLINK-3329,PAYLOAD,2023-02-04 13:31:19,15.08839104,0.0001261,53.2145,197.9651,89.0272,271.0865,0.00010721,1.419e-05,0.0,0 STARLINK-3329,1 50827U 22001AA  23035.56342415  .00001419  00000-0  10721-3 0  9999,2 50827  53.2145 197.9651 0001261  89.0272 271.0865 15.08839104 59945,6917.883,95.438,540.62,538.876,0.0
50827.0,STARLINK-3329,PAYLOAD,2023-02-04 18:17:28,15.08844366,0.0001186,53.2148,197.0731,88.1658,271.947,9.9793e-05,1.301e-05,0.0,0 STARLINK-3329,1 50827U 22001AA  23035.76214109  .00001301  00000-0  99793-4 0  9996,2 50827  53.2148 197.0731 0001186  88.1658 271.9470 15.08844366 59972,6917.867,95.437,540.553,538.912,0.0
50827.0,STARLINK-3329,PAYLOAD,2023-02-05 10:11:20,15.08835547,0.000118,53.215,194.0997,87.2595,272.8532,5.2235e-05,5.43e-06,0.0,0 STARLINK-3329,1 50827U 22001AA  23036.42454815  .00000543  00000-0  52235-4 0  9997,2 50827  53.2150 194.0997 0001180  87.2595 272.8532 15.08835547 61344,6917.894,95.438,540.575,538.943,0.0
50827.0,STARLINK-3329,PAYLOAD,2023-02-05 13:22:07,15.08836363,0.0001213,53.2151,193.5049,88.1099,272.0032,4.7388e-05,4.66e-06,0.0,0 STARLINK-3329,1 50827U 22001AA  23036.55702807  .00000466  00000-0  47388-4 0  9995,2 50827  53.2151 193.5049 0001213  88.1099 272.0032 15.08836363 60098,6917.892,95.438,540.596,538.917,0.0
50827.0,STARLINK-3329,PAYLOAD,2023-02-05 16:32:53,15.08836551,0.0001174,53.2151,192.9104,86.6826,273.43,6.766e-05,7.89e-06,0.0,0 STARLINK-3329,1 50827U 22001AA  23036.68950729  .00000789  00000-0  67660-4 0  9990,2 50827  53.2151 192.9104 0001174  86.6826 273.4300 15.08836551 60115,6917.891,95.438,540.568,538.944,0.0
50827.0,STARLINK-3329,PAYLOAD,2023-02-06 03:40:35,15.08842078,0.0001226,53.2152,190.8288,86.7708,273.3424,3.7459e-05,3.08e-06,0.0,0 STARLINK-3329,1 50827U 22001AA  23037.15318468  .00000308  00000-0  37459-4 0  9991,2 50827  53.2152 190.8288 0001226  86.7708 273.3424 15.08842078 60188,6917.874,95.437,540.587,538.891,0.0
50827.0,STARLINK-3329,PAYLOAD,2023-02-06 16:23:40,15.08844876,0.0001187,53.2152,188.4499,84.566,275.5467,5.1073e-05,5.25e-06,0.0,0 STARLINK-3329,1 50827U 22001AA  23037.68310245  .00000525  00000-0  51073-4 0  9993,2 50827  53.2152 188.4499 0001187  84.5660 275.5467 15.08844876 61533,6917.865,95.437,540.552,538.909,0.0
50827.0,STARLINK-3329,PAYLOAD,2023-02-07 14:39:03,15.08842669,0.0001316,53.2147,184.2862,99.7566,260.3575,9.4723e-05,1.22e-05,0.0,0 STARLINK-3329,1 50827U 22001AA  23038.61046107  .00001220  00000-0  94723-4 0  9992,2 50827  53.2147 184.2862 0001316  99.7566 260.3575 15.08842669 60407,6917.872,95.437,540.648,538.827,0.0
50827.0,STARLINK-3329,PAYLOAD,2023-02-07 16:14:26,15.08844535,0.0001419,53.2145,183.988,107.6853,252.4294,0.00012139,1.645e-05,0.0,0 STARLINK-3329,1 50827U 22001AA  23038.67669858  .00001645  00000-0  12139-3 0  9993,2 50827  53.2145 183.9880 0001419 107.6853 252.4294 15.08844535 60418,6917.867,95.437,540.713,538.75,0.0
50827.0,STARLINK-3329,PAYLOAD,2023-02-08 14:29:50,15.08857043,0.0001072,53.2149,179.8249,106.0903,254.0208,0.00015925,2.249e-05,0.0,0 STARLINK-3329,1 50827U 22001AA  23039.60405129  .00002249  00000-0  15925-3 0  9993,2 50827  53.2149 179.8249 0001072 106.0903 254.0208 15.08857043 61826,6917.828,95.436,540.435,538.952,0.0
50827.0,STARLINK-3329,PAYLOAD,2023-02-08 20:51:21,15.08868162,0.000125,53.2148,178.6335,130.9081,229.202,0.00023755,3.498e-05,0.0,0 STARLINK-3329,1 50827U 22001AA  23039.86899845  .00003498  00000-0  23755-3 0  9990,2 50827  53.2148 178.6335 0001250 130.9081 229.2020 15.08868162 60592,6917.794,95.436,540.524,538.795,0.0
50827.0,STARLINK-3329,PAYLOAD,2023-02-09 07:59:06,15.08826111,0.0001472,53.2144,176.5528,119.5719,240.542,-8.028e-05,-1.565e-05,0.0,0 STARLINK-3329,1 50827U 22001AA  23040.33271485 -.00001565  00000-0 -80280-4 0  9990,2 50827  53.2144 176.5528 0001472 119.5719 240.5420 15.08826111 60662,6917.923,95.438,540.806,538.77,0.0
50827.0,STARLINK-3329,PAYLOAD,2023-02-09 14:20:38,15.08839646,0.0001331,53.214,175.3642,125.8806,234.2309,2.7612e-05,1.52e-06,0.0,0 STARLINK-3329,1 50827U 22001AA  23040.59766222  .00000152  00000-0  27612-4 0  9995,2 50827  53.2140 175.3642 0001331 125.8806 234.2309 15.08839646 61971,6917.881,95.438,540.667,538.826,0.0
50827.0,STARLINK-3329,PAYLOAD,2023-02-10 01:28:19,15.08839472,8.37e-05,53.2147,173.2821,92.8872,267.2216,-3.4094e-05,-8.3e-06,0.0,0 STARLINK-3329,1 50827U 22001AA  23041.06134138 -.00000830  00000-0 -34094-4 0  9990,2 50827  53.2147 173.2821 0000837  92.8872 267.2216 15.08839472 60777,6917.882,95.438,540.326,539.168,0.0
50827.0,STARLINK-3329,PAYLOAD,2023-02-10 12:36:02,15.0883659,8.23e-05,53.215,171.2014,102.8048,257.3036,-0.0001667,-2.939e-05,0.0,0 STARLINK-3329,1 50827U 22001AA  23041.52502796 -.00002939  00000-0 -16670-3 0  9991,2 50827  53.2150 171.2014 0000823 102.8048 257.3036 15.08836590 62113,6917.891,95.438,540.325,539.186,0.0
50827.0,STARLINK-3329,PAYLOAD,2023-02-10 15:46:48,15.08847707,8.06e-05,53.2154,170.6049,99.9213,260.187,-5.6164e-06,-3.77e-06,0.0,0 STARLINK-3329,1 50827U 22001AA  23041.65750024 -.00000377  00000-0 -56164-5 0  9992,2 50827  53.2154 170.6049 0000806  99.9213 260.1870 15.08847707 60869,6917.857,95.437,540.279,539.164,0.0
50827.0,STARLINK-3329,PAYLOAD,2023-02-11 04:29:54,15.08820351,0.0001149,53.2153,168.2316,86.9457,273.1666,5.7673e-05,6.3e-06,0.0,0 STARLINK-3329,1 50827U 22001AA  23042.18743908  .00000630  00000-0  57673-4 0  9999,2 50827  53.2153 168.2316 0001149  86.9457 273.1666 15.08820351 62219,6917.94,95.439,540.6,539.011,0.0
50827.0,STARLINK-3329,PAYLOAD,2023-02-11 10:51:27,15.08824084,0.0001083,53.2155,167.0415,101.8897,258.2217,-2.9955e-06,-3.35e-06,0.0,0 STARLINK-3329,1 50827U 22001AA  23042.45239992 -.00000335  00000-0 -29955-5 0  9999,2 50827  53.2155 167.0415 0001083 101.8897 258.2217 15.08824084 60985,6917.929,95.439,540.543,539.045,0.0
50827.0,STARLINK-3329,PAYLOAD,2023-02-11 17:13:00,15.08827625,0.0001085,53.2155,165.8511,97.3883,262.7233,7.1079e-06,-1.75e-06,0.0,0 STARLINK-3329,1 50827U 22001AA  23042.71736131 -.00000175  00000-0  71079-5 0  9990,2 50827  53.2155 165.8511 0001085  97.3883 262.7233 15.08827625 61022,6917.918,95.438,540.534,539.033,0.0
50827.0,STARLINK-3329,PAYLOAD,2023-02-12 04:20:41,15.0883046,0.0001243,53.2153,163.7723,100.1137,259.9996,4.2601e-05,3.9e-06,0.0,0 STARLINK-3329,1 50827U 22001AA  23043.18103939  .00000390  00000-0  42601-4 0  9992,2 50827  53.2153 163.7723 0001243 100.1137 259.9996 15.08830460 62366,6917.91,95.438,540.634,538.915,0.0
50827.0,STARLINK-3329,PAYLOAD,2023-02-12 13:53:00,15.08831746,0.0001212,53.2151,161.9856,94.0627,266.0504,0.00014033,1.946e-05,0.0,0 STARLINK-3329,1 50827U 22001AA  23043.57848239  .00001946  00000-0  14033-3 0  9999,2 50827  53.2151 161.9856 0001212  94.0627 266.0504 15.08831746 61150,6917.906,95.438,540.609,538.932,0.0
50827.0,STARLINK-3329,PAYLOAD,2023-02-13 01:00:41,15.08845914,9.89e-05,53.2172,159.9024,76.61,283.5003,0.00017515,2.501e-05,0.0,0 STARLINK-3329,1 50827U 22001AA  23044.04215166  .00002501  00000-0  17515-3 0  9995,2 50827  53.2172 159.9024 0000989  76.6100 283.5003 15.08845914 62497,6917.862,95.437,540.411,539.043,0.0
50827.0,STARLINK-3329,PAYLOAD,2023-02-13 10:33:01,15.08834376,0.0001281,53.2162,158.1202,80.5257,279.588,0.0001882,2.708e-05,0.0,0 STARLINK-3329,1 50827U 22001AA  23044.43960100  .00002708  00000-0  18820-3 0  9992,2 50827  53.2162 158.1202 0001281  80.5257 279.5880 15.08834376 62553,6917.898,95.438,540.649,538.876,0.0
50827.0,STARLINK-3329,PAYLOAD,2023-02-13 13:43:47,15.08840845,0.0001211,53.2167,157.525,88.8562,271.2569,0.00026696,3.963e-05,0.0,0 STARLINK-3329,1 50827U 22001AA  23044.57207582  .00003963  00000-0  26696-3 0  9999,2 50827  53.2167 157.5250 0001211  88.8562 271.2569 15.08840845 61300,6917.878,95.438,540.581,538.905,0.0
50827.0,STARLINK-3329,PAYLOAD,2023-02-13 16:54:32,15.08854346,0.0001137,53.2157,156.929,82.3784,277.7337,0.00024121,3.555e-05,0.0,0 STARLINK-3329,1 50827U 22001AA  23044.70454649  .00003555  00000-0  24121-3 0  9990,2 50827  53.2157 156.9290 0001137  82.3784 277.7337 15.08854346 62595,6917.837,95.437,540.488,538.915,0.0
50827.0,STARLINK-3329,PAYLOAD,2023-02-14 00:51:29,15.08844946,0.0001699,53.2147,155.4453,72.2791,287.8387,-1.7295e-05,-5.63e-06,0.0,0 STARLINK-3329,1 50827U 22001AA  23045.03575400 -.00000563  00000-0 -17295-4 0  9999,2 50827  53.2147 155.4453 0001699  72.2791 287.8387 15.08844946 62646,6917.865,95.437,540.906,538.555,0.0
50827.0,STARLINK-3329,PAYLOAD,2023-02-14 10:23:48,15.08834689,0.0001043,53.2145,153.6586,99.2462,260.8648,5.1751e-05,5.36e-06,0.0,0 STARLINK-3329,1 50827U 22001AA  23045.43319929  .00000536  00000-0  51751-4 0  9998,2 50827  53.2145 153.6586 0001043  99.2462 260.8648 15.08834689 62709,6917.897,95.438,540.483,539.04,0.0
50827.0,STARLINK-3329,PAYLOAD,2023-02-14 13:34:34,15.08834241,0.0001017,53.2156,153.0637,100.5716,259.5391,0.00011008,1.464e-05,0.0,0 STARLINK-3329,1 50827U 22001AA  23045.56568137  .00001464  00000-0  11008-3 0  9990,2 50827  53.2156 153.0637 0001017 100.5716 259.5391 15.08834241 61456,6917.898,95.438,540.467,539.059,0.0
